GPS BIIR-2  (PRN 13)    
1 24876C 97035A   22316.82645833 -.00000000  00000-0  00000-0 0  3168
2 24876  55.5301 149.8845 0064752  53.2225 225.8768  2.00563924    10
GPS BIIR-4  (PRN 20)    
1 26360C 00025A   22316.82645833 -.00000000  00000-0  00000-0 0  3161
2 26360  54.1821  72.7459 0047680 188.7241 181.2287  2.00562432    14
GPS BIIR-6  (PRN 22)    
1 26605C 00071A   22316.82645833 -.00000000  00000-0  00000-0 0  3164
2 26605  55.1166 146.8137 0137291 254.5819 239.1420  2.00554323    18
GPS BIIR-8  (PRN 16)    
1 27663C 03005A   22316.82645833  .00000000  00000-0  00000-0 0  3168
2 27663  55.4177 267.1666 0128459  41.5293 304.4952  2.00556073    18
GPS BIIR-9  (PRN 21)    
1 27704C 03010A   22316.82645833 -.00000000  00000-0  00000-0 0  3161
2 27704  55.0696  17.3075 0247047 309.7150 252.3785  2.00562983    13
GPS BIIR-11 (PRN 19)    
1 28190C 04009A   22316.82645833  .00000000  00000-0  00000-0 0  3169
2 28190  55.9091 328.1832 0088458 127.6269  12.8312  2.00557419    15
GPS BIIR-13 (PRN 02)    
1 28474C 04045A   22316.82645833 -.00000000  00000-0  00000-0 0  3165
2 28474  55.3952  17.5058 0203960 280.5755  70.5943  2.00421775    11
GPS BIIRM-1 (PRN 17)    
1 28874C 05038A   22316.82645833  .00000000  00000-0  00000-0 0  3161
2 28874  55.9697 325.6232 0140852 276.2086 253.0814  2.00566436    12
GPS BIIRM-2 (PRN 31)    
1 29486C 06042A   22316.82645833  .00000000  00000-0  00000-0 0  3167
2 29486  54.7013 203.3801 0105946  25.2893  58.1973  2.00570466    16
GPS BIIRM-3 (PRN 12)    
1 29601C 06052A   22316.82645833  .00000000  00000-0  00000-0 0  3167
2 29601  55.4290 266.1109 0083950  75.1151  46.5117  2.00559170    19
GPS BIIRM-4 (PRN 15)    
1 32260C 07047A   22316.82645833 -.00000000  00000-0  00000-0 0  3168
2 32260  53.3560 134.3936 0145197  65.9313 196.9744  2.00567539    18
GPS BIIRM-5 (PRN 29)    
1 32384C 07062A   22316.82645833  .00000000  00000-0  00000-0 0  3161
2 32384  56.0933 326.4041 0019985 147.5157 241.4089  2.00570483    18
GPS BIIRM-6 (PRN 07)    
1 32711C 08012A   22316.82645833  .00000000  00000-0  00000-0 0  3161
2 32711  54.4636 202.2811 0166316 232.2870  87.9660  2.00569466    12
GPS BIIRM-8 (PRN 05)    
1 35752C 09043A   22316.82645833 -.00000000  00000-0  00000-0 0  3165
2 35752  55.1888  79.5614 0057179  64.3819 269.5272  2.00576945    13
GPS BIIF-1  (PRN 25)    
1 36585C 10022A   22316.82645833  .00000000  00000-0  00000-0 0  3168
2 36585  54.7169 261.5271 0105886  56.9076  39.0897  2.00573136    10
GPS BIIF-2  (PRN 01)    
1 37753C 11036A   22316.82645833 -.00000000  00000-0  00000-0 0  3163
2 37753  56.6650  22.9361 0118344  53.2926 124.6606  2.00566476    18
GPS BIIF-3  (PRN 24)    
1 38833C 12053A   22316.82645833  .00000000  00000-0  00000-0 0  3162
2 38833  53.5206 197.2787 0132146  48.5432 142.0009  2.00563731    16
GPS BIIF-4  (PRN 27)    
1 39166C 13023A   22316.82645833  .00000000  00000-0  00000-0 0  3160
2 39166  55.5921 321.9377 0106103  38.1339 254.3754  2.00565650    14
GPS BIIF-5  (PRN 30)    
1 39533C 14008A   22316.82645833  .00000000  00000-0  00000-0 0  3162
2 39533  53.6119 202.8009 0060501 209.2736  79.9470  2.00561897    17
GPS BIIF-6  (PRN 06)    
1 39741C 14026A   22316.82645833 -.00000000  00000-0  00000-0 0  3164
2 39741  56.6236  22.4614 0028193 304.4207 142.8267  2.00578275    13
GPS BIIF-7  (PRN 09)    
1 40105C 14045A   22316.82645833 -.00000000  00000-0  00000-0 0  3161
2 40105  54.7254 140.8796 0024264 112.0720 272.8662  2.00557732    10
GPS BIIF-8  (PRN 03)    
1 40294C 14068A   22316.82645833 -.00000000  00000-0  00000-0 0  3165
2 40294  55.9322  82.0809 0042549  58.7116  61.5229  2.00552042    12
GPS BIIF-9  (PRN 26)    
1 40534C 15013A   22316.82645833  .00000000  00000-0  00000-0 0  3162
2 40534  53.6168 258.5468 0073570  21.0393 356.3928  2.00573121    13
GPS BIIF-10 (PRN 08)    
1 40730C 15033A   22316.82645833  .00000000  00000-0  00000-0 0  3162
2 40730  55.0871 320.6952 0077347   7.7524 255.6197  2.00570789    16
GPS BIIF-11 (PRN 10)    
1 41019C 15062A   22316.82645833 -.00000000  00000-0  00000-0 0  3166
2 41019  55.9194  81.9268 0083032 218.1166   7.4398  2.00562885    13
GPS BIIF-12 (PRN 32)    
1 41328C 16007A   22316.82645833 -.00000000  00000-0  00000-0 0  3169
2 41328  54.9385 141.5866 0063719 229.6539 293.0199  2.00564364    11
GPS BIII-1  (PRN 04)    
1 43873C 18109A   22316.82645833 -.00000000  00000-0  00000-0 0  3161
2 43873  55.1173 144.0381 0021597 187.2517 227.1005  2.00556406    11
GPS BIII-2  (PRN 18)    
1 44506C 19056A   22316.82645833 -.00000000  00000-0  00000-0 0  3167
2 44506  55.7397  23.1564 0029587 184.3588 130.3847  2.00559430    11
GPS BIII-3  (PRN 23)    
1 45854C 20041A   22316.82645833 -.00000000  00000-0  00000-0 0  3160
2 45854  55.6387  80.4245 0028418 180.4395  73.5227  2.00568674    13
GPS BIII-4  (PRN 14)    
1 46826C 20078A   22316.82645833  .00000000  00000-0  00000-0 0  3169
2 46826  54.4760 264.0727 0024321 190.9871  39.5786  2.00565356    10
GPS BIII-5  (PRN 11)    
1 48859C 21054A   22316.82645833 -.00000000  00000-0  00000-0 0  3163
2 48859  55.2492  25.0837 0008852 208.9060 206.6209  2.00565126    19
